[{"OBJECT_NAME":"STARLINK-5981","OBJECT_ID":"2023-058J","EPOCH":"2026-03-09T22:14:54.545280","MEAN_MOTION":15.01258925,"ECCENTRICITY":0.00032383,"INCLINATION":97.6037,"RA_OF_ASC_NODE":70.4064,"ARG_OF_PERICENTER":76.6419,"MEAN_ANOMALY":283.5166,"EPHEMERIS_TYPE":0,"CLASSIFICATION_TYPE":"U","NORAD_CAT_ID":56325,"ELEMENT_SET_NO":999,"REV_AT_EPOCH":15816,"BSTAR":3.306275e-6,"MEAN_MOTION_DOT":-1.6e-7,"MEAN_MOTION_DDOT":0},{"OBJECT_NAME":"FENGYUN 1C DEB","OBJECT_ID":"1999-025BTY","EPOCH":"2026-03-09T14:49:03.533664","MEAN_MOTION":15.05418076,"ECCENTRICITY":0.0035944,"INCLINATION":98.8793,"RA_OF_ASC_NODE":298.6402,"ARG_OF_PERICENTER":319.4464,"MEAN_ANOMALY":105.3063,"EPHEMERIS_TYPE":0,"CLASSIFICATION_TYPE":"U","NORAD_CAT_ID":31436,"ELEMENT_SET_NO":999,"REV_AT_EPOCH":98178,"BSTAR":0.0045436,"MEAN_MOTION_DOT":0.00066638,"MEAN_MOTION_DDOT":0}]
